{
"type": "FeatureCollection",
"name": "chantiers",
"crs": { "type": "name", "properties": { "name": "urn:ogc:def:crs:OGC:1.3:CRS84" } },
"features": [
{ "type": "Feature", "properties": { "num_emprise": "EC407570", "cp_arrondissement": "75019", "date_debut": "2024-10-07", "date_fin": "2025-06-13", "chantier_categorie": "Opérateurs de réseau (gaz-électricité-RATP-etc)", "moa_principal": "EAU DE PARIS", "demande_cite_id": "877775", "chantier_cite_id": "266161", "nature_chantier": "EP" }, "geometry": { "type": "Polygon", "coordinates": [ [ [ 2.384684623982914, 48.879211290929128 ], [ 2.384945371150282, 48.8791129077376 ], [ 2.38489581103387, 48.879100358368184 ], [ 2.384675275986687, 48.879184377202058 ], [ 2.384661258675827, 48.879202063321351 ], [ 2.384684623982914, 48.879211290929128 ] ] ] } },
{ "type": "Feature", "properties": { "num_emprise": "EC412556", "cp_arrondissement": "75019", "date_debut": "2024-12-12", "date_fin": "2025-07-25", "chantier_categorie": "Opérateurs de réseau (gaz-électricité-RATP-etc)", "moa_principal": "EAU DE PARIS", "demande_cite_id": "881710", "chantier_cite_id": "269385", "nature_chantier": "EP" }, "geometry": { "type": "Polygon", "coordinates": [ [ [ 2.372091664327141, 48.87655256897677 ], [ 2.371701858231685, 48.876894774002636 ], [ 2.37178158309701, 48.876924335290617 ], [ 2.371868083135701, 48.876850110391402 ], [ 2.371896447395307, 48.876864223159409 ], [ 2.372193128227258, 48.876611386914277 ], [ 2.372091664327141, 48.87655256897677 ] ] ] } },
{ "type": "Feature", "properties": { "num_emprise": "EC421915", "cp_arrondissement": "75010", "date_debut": "2024-11-04", "date_fin": "2025-03-28", "chantier_categorie": "Opérateurs de réseau (gaz-électricité-RATP-etc)", "moa_principal": "EAU DE PARIS", "demande_cite_id": "888950", "chantier_cite_id": "275235", "nature_chantier": "EP" }, "geometry": { "type": "Polygon", "coordinates": [ [ [ 2.366444494437244, 48.876893200974749 ], [ 2.366269387996731, 48.876958301371467 ], [ 2.366300995571866, 48.876984651882637 ], [ 2.36647179663636, 48.876918959378365 ], [ 2.366444494437244, 48.876893200974749 ] ] ] } },
{ "type": "Feature", "properties": { "num_emprise": "EC428062", "cp_arrondissement": "75014", "date_debut": "2025-01-22", "date_fin": "2025-07-25", "chantier_categorie": "Opérateurs de réseau (gaz-électricité-RATP-etc)", "moa_principal": "EAU DE PARIS", "demande_cite_id": "893862", "chantier_cite_id": "279139", "nature_chantier": "ENP" }, "geometry": { "type": "Polygon", "coordinates": [ [ [ 2.333559559075788, 48.829439252936055 ], [ 2.333610787324205, 48.829424510735954 ], [ 2.333399216677488, 48.82914099719185 ], [ 2.33336045404673, 48.829151710336959 ], [ 2.333559559075788, 48.829439252936055 ] ] ] } },
{ "type": "Feature", "properties": { "num_emprise": "EC428979", "cp_arrondissement": "75020", "date_debut": "2025-01-13", "date_fin": "2025-03-14", "chantier_categorie": "Opérateurs de réseau (gaz-électricité-RATP-etc)", "moa_principal": "EAU DE PARIS", "demande_cite_id": "894611", "chantier_cite_id": "279736", "nature_chantier": "ENP" }, "geometry": { "type": "Polygon", "coordinates": [ [ [ 2.394404567631138, 48.85667056286055 ], [ 2.394086326408056, 48.856838195523359 ], [ 2.394136427449419, 48.856881708698097 ], [ 2.394429366136079, 48.856713947863284 ], [ 2.394404567631138, 48.85667056286055 ] ] ] } },
{ "type": "Feature", "properties": { "num_emprise": "EC412328", "cp_arrondissement": "75010", "date_debut": "2025-01-06", "date_fin": "2025-08-29", "chantier_categorie": "Opérateurs de réseau (gaz-électricité-RATP-etc)", "moa_principal": "EAU DE PARIS", "demande_cite_id": "881525", "chantier_cite_id": "269235", "nature_chantier": "EP" }, "geometry": { "type": "Polygon", "coordinates": [ [ [ 2.370021955579011, 48.879180338442737 ], [ 2.370104127103348, 48.879160127574785 ], [ 2.370107060378091, 48.878841393014774 ], [ 2.370073004773539, 48.87884121382352 ], [ 2.370027135248136, 48.878828222633452 ], [ 2.370021955579011, 48.879180338442737 ] ] ] } },
{ "type": "Feature", "properties": { "num_emprise": "EC422863", "cp_arrondissement": "75010", "date_debut": "2024-12-18", "date_fin": "2025-07-25", "chantier_categorie": "Opérateurs de réseau (gaz-électricité-RATP-etc)", "moa_principal": "EAU DE PARIS", "demande_cite_id": "889706", "chantier_cite_id": "275865", "nature_chantier": "INSTALL_RES" }, "geometry": { "type": "Polygon", "coordinates": [ [ [ 2.369590826399145, 48.874607027860314 ], [ 2.369650467624863, 48.87462252001211 ], [ 2.369982575123766, 48.874180040922987 ], [ 2.369933732871014, 48.874159546109219 ], [ 2.369590826399145, 48.874607027860314 ] ] ] } },
{ "type": "Feature", "properties": { "num_emprise": "EC426619", "cp_arrondissement": "75018", "date_debut": "2025-01-06", "date_fin": "2025-02-28", "chantier_categorie": "Opérateurs de réseau (gaz-électricité-RATP-etc)", "moa_principal": "EAU DE PARIS", "demande_cite_id": "892634", "chantier_cite_id": "278225", "nature_chantier": "EP" }, "geometry": { "type": "Polygon", "coordinates": [ [ [ 2.365060827225658, 48.895592618323484 ], [ 2.36509537141355, 48.895591435405755 ], [ 2.365092959403453, 48.895562736166447 ], [ 2.365056332430581, 48.895564818150554 ], [ 2.365060827225658, 48.895592618323484 ] ] ] } },
{ "type": "Feature", "properties": { "num_emprise": "EC431620", "cp_arrondissement": "75014", "date_debut": "2025-01-26", "date_fin": "2025-08-31", "chantier_categorie": "Opérateurs de réseau (gaz-électricité-RATP-etc)", "moa_principal": "EAU DE PARIS", "demande_cite_id": "896616", "chantier_cite_id": "281428", "nature_chantier": "autre" }, "geometry": { "type": "Polygon", "coordinates": [ [ [ 2.335742215266926, 48.833201433461163 ], [ 2.335848229572828, 48.833326339619717 ], [ 2.335965850192264, 48.833298304538779 ], [ 2.335866159362177, 48.833164324759444 ], [ 2.335742215266926, 48.833201433461163 ] ] ] } },
{ "type": "Feature", "properties": { "num_emprise": "EC427471", "cp_arrondissement": "75007", "date_debut": "2024-12-09", "date_fin": "2025-09-05", "chantier_categorie": "Opérateurs de réseau (gaz-électricité-RATP-etc)", "moa_principal": "EAU DE PARIS", "demande_cite_id": "893293", "chantier_cite_id": "278736", "nature_chantier": "autre" }, "geometry": { "type": "Polygon", "coordinates": [ [ [ 2.311573268821167, 48.848843741639008 ], [ 2.311575122116216, 48.84886014496216 ], [ 2.312040465060415, 48.848838232202262 ], [ 2.312070482664269, 48.848759625246203 ], [ 2.311564422580708, 48.848782214889972 ], [ 2.311573268821167, 48.848843741639008 ] ] ] } },
{ "type": "Feature", "properties": { "num_emprise": "EC428061", "cp_arrondissement": "75014", "date_debut": "2025-01-22", "date_fin": "2025-07-25", "chantier_categorie": "Opérateurs de réseau (gaz-électricité-RATP-etc)", "moa_principal": "EAU DE PARIS", "demande_cite_id": "893862", "chantier_cite_id": "279139", "nature_chantier": "ENP" }, "geometry": { "type": "Polygon", "coordinates": [ [ [ 2.334970311293918, 48.831582374969315 ], [ 2.335020174341573, 48.831566713528396 ], [ 2.334862133896605, 48.831303081974283 ], [ 2.334799132056872, 48.831321402572556 ], [ 2.334970311293918, 48.831582374969315 ] ] ] } },
{ "type": "Feature", "properties": { "num_emprise": "EC409475", "cp_arrondissement": "75011", "date_debut": "2024-09-18", "date_fin": "2025-02-14", "chantier_categorie": "Opérateurs de réseau (gaz-électricité-RATP-etc)", "moa_principal": "EAU DE PARIS", "demande_cite_id": "879323", "chantier_cite_id": "267417", "nature_chantier": "EP" }, "geometry": { "type": "Polygon", "coordinates": [ [ [ 2.390619117219879, 48.850365112343702 ], [ 2.390639779086074, 48.850368404881955 ], [ 2.390779438640412, 48.850226586656639 ], [ 2.390758835384932, 48.850218285044981 ], [ 2.390619117219879, 48.850365112343702 ] ] ] } },
{ "type": "Feature", "properties": { "num_emprise": "EC413735", "cp_arrondissement": "75008", "date_debut": "2024-09-16", "date_fin": "2025-02-14", "chantier_categorie": "Opérateurs de réseau (gaz-électricité-RATP-etc)", "moa_principal": "EAU DE PARIS", "demande_cite_id": "882639", "chantier_cite_id": "270187", "nature_chantier": null }, "geometry": { "type": "Polygon", "coordinates": [ [ [ 2.313576419845678, 48.87619620007014 ], [ 2.313618374537136, 48.876225583714366 ], [ 2.31379797998331, 48.876147076758322 ], [ 2.31374426851527, 48.876101840578983 ], [ 2.313560932744723, 48.87618396838954 ], [ 2.313576419845678, 48.87619620007014 ] ] ] } },
{ "type": "Feature", "properties": { "num_emprise": "EC419411", "cp_arrondissement": "75017", "date_debut": "2024-11-07", "date_fin": "2025-03-31", "chantier_categorie": "Opérateurs de réseau (gaz-électricité-RATP-etc)", "moa_principal": "EAU DE PARIS", "demande_cite_id": "886905", "chantier_cite_id": "273645", "nature_chantier": "EP" }, "geometry": { "type": "Polygon", "coordinates": [ [ [ 2.306255931800398, 48.88137911597326 ], [ 2.306298030035161, 48.881415029353391 ], [ 2.306467046676952, 48.881338850985379 ], [ 2.306424956493425, 48.881302431383283 ], [ 2.306255931800398, 48.88137911597326 ] ] ] } },
{ "type": "Feature", "properties": { "num_emprise": "EC426620", "cp_arrondissement": "75018", "date_debut": "2025-01-06", "date_fin": "2025-02-28", "chantier_categorie": "Opérateurs de réseau (gaz-électricité-RATP-etc)", "moa_principal": "EAU DE PARIS", "demande_cite_id": "892634", "chantier_cite_id": "278225", "nature_chantier": "EP" }, "geometry": { "type": "Polygon", "coordinates": [ [ [ 2.364902034932432, 48.895192434891449 ], [ 2.364987083950616, 48.895183778504688 ], [ 2.364972825026541, 48.895107204160098 ], [ 2.364881566630988, 48.89511537165091 ], [ 2.364902034932432, 48.895192434891449 ] ] ] } },
{ "type": "Feature", "properties": { "num_emprise": "EC428980", "cp_arrondissement": "75020", "date_debut": "2025-01-13", "date_fin": "2025-03-14", "chantier_categorie": "Opérateurs de réseau (gaz-électricité-RATP-etc)", "moa_principal": "EAU DE PARIS", "demande_cite_id": "894611", "chantier_cite_id": "279736", "nature_chantier": "EP" }, "geometry": { "type": "Polygon", "coordinates": [ [ [ 2.394751126935891, 48.856272733491011 ], [ 2.394685815272649, 48.856350573516565 ], [ 2.394749150150903, 48.856393395247046 ], [ 2.394811041057804, 48.856362590852967 ], [ 2.394846827343539, 48.856301677360435 ], [ 2.394751126935891, 48.856272733491011 ] ] ] } },
{ "type": "Feature", "properties": { "num_emprise": "EC404147", "cp_arrondissement": "75013", "date_debut": "2024-09-15", "date_fin": "2026-02-01", "chantier_categorie": "Opérateurs de réseau (gaz-électricité-RATP-etc)", "moa_principal": "EAU DE PARIS", "demande_cite_id": "874818", "chantier_cite_id": "263806", "nature_chantier": "EP" }, "geometry": { "type": "Polygon", "coordinates": [ [ [ 2.372507059701084, 48.836561273956519 ], [ 2.372333050737538, 48.836474942840752 ], [ 2.372403956666256, 48.836422124616611 ], [ 2.372498550007625, 48.836347165022076 ], [ 2.372519352300714, 48.836330995632551 ], [ 2.372887122259156, 48.836038830859295 ], [ 2.373054677692425, 48.836131902302157 ], [ 2.373086627295045, 48.836107537760064 ], [ 2.37291656960004, 48.836015903019231 ], [ 2.372941658319666, 48.835994699789893 ], [ 2.372869634653206, 48.835966242187823 ], [ 2.372668934045249, 48.836124182339134 ], [ 2.372693611379062, 48.836137062070343 ], [ 2.372667137535142, 48.836158781412145 ], [ 2.372658903987487, 48.836155095798041 ], [ 2.372503947273901, 48.83627602653069 ], [ 2.372492302172179, 48.836286269472204 ], [ 2.372347104598092, 48.836404737462004 ], [ 2.372355473097846, 48.836409549810575 ], [ 2.37225849071128, 48.83648511101827 ], [ 2.372233958391681, 48.836469348596673 ], [ 2.372219381118546, 48.836479720019931 ], [ 2.372216377566118, 48.836500601914068 ], [ 2.372384095545864, 48.83655643688207 ], [ 2.372415470174898, 48.836553736122738 ], [ 2.372481236527745, 48.83658618401509 ], [ 2.372507059701084, 48.836561273956519 ] ] ] } },
{ "type": "Feature", "properties": { "num_emprise": "EC405953", "cp_arrondissement": "75007", "date_debut": "2024-12-09", "date_fin": "2025-09-05", "chantier_categorie": "Opérateurs de réseau (gaz-électricité-RATP-etc)", "moa_principal": "EAU DE PARIS", "demande_cite_id": "876408", "chantier_cite_id": "265060", "nature_chantier": "EP" }, "geometry": { "type": "Polygon", "coordinates": [ [ [ 2.308198555890516, 48.852830405254259 ], [ 2.30833704527747, 48.852742180188294 ], [ 2.308346647995723, 48.852720606124734 ], [ 2.308287573566544, 48.852674272330439 ], [ 2.308120552121733, 48.852780546171921 ], [ 2.307972438855612, 48.852878959918485 ], [ 2.308056109854194, 48.852917695325246 ], [ 2.308198555890516, 48.852830405254259 ] ] ] } },
{ "type": "Feature", "properties": { "num_emprise": "EC407575", "cp_arrondissement": "75019", "date_debut": "2024-10-07", "date_fin": "2025-06-13", "chantier_categorie": "Opérateurs de réseau (gaz-électricité-RATP-etc)", "moa_principal": "EAU DE PARIS", "demande_cite_id": "877775", "chantier_cite_id": "266161", "nature_chantier": "ENP" }, "geometry": { "type": "Polygon", "coordinates": [ [ [ 2.383040099535043, 48.876809017703444 ], [ 2.382977421643413, 48.876738569250563 ], [ 2.382938199843629, 48.876756809684686 ], [ 2.382998157335573, 48.876823828473263 ], [ 2.383040099535043, 48.876809017703444 ] ] ] } },
{ "type": "Feature", "properties": { "num_emprise": "EC407576", "cp_arrondissement": "75019", "date_debut": "2024-10-07", "date_fin": "2025-06-13", "chantier_categorie": "Opérateurs de réseau (gaz-électricité-RATP-etc)", "moa_principal": "EAU DE PARIS", "demande_cite_id": "877775", "chantier_cite_id": "266161", "nature_chantier": "autre" }, "geometry": { "type": "Polygon", "coordinates": [ [ [ 2.382584605489435, 48.876287562204389 ], [ 2.382541628790658, 48.87630236748425 ], [ 2.382677838242605, 48.876459257013849 ], [ 2.382716690688587, 48.876443064334417 ], [ 2.382584605489435, 48.876287562204389 ] ] ] } },
{ "type": "Feature", "properties": { "num_emprise": "EC407369", "cp_arrondissement": "75012", "date_debut": "2024-09-18", "date_fin": "2025-02-14", "chantier_categorie": "Opérateurs de réseau (gaz-électricité-RATP-etc)", "moa_principal": "EAU DE PARIS", "demande_cite_id": "877599", "chantier_cite_id": "266033", "nature_chantier": "ENP" }, "geometry": { "type": "Polygon", "coordinates": [ [ [ 2.398727045715461, 48.841223984269099 ], [ 2.398654026594602, 48.841307607502515 ], [ 2.398683036219277, 48.841317872918836 ], [ 2.398755277953755, 48.841235256641376 ], [ 2.398727045715461, 48.841223984269099 ] ] ] } },
{ "type": "Feature", "properties": { "num_emprise": "EC407574", "cp_arrondissement": "75019", "date_debut": "2024-10-07", "date_fin": "2025-06-13", "chantier_categorie": "Opérateurs de réseau (gaz-électricité-RATP-etc)", "moa_principal": "EAU DE PARIS", "demande_cite_id": "877775", "chantier_cite_id": "266161", "nature_chantier": "ENP" }, "geometry": { "type": "Polygon", "coordinates": [ [ [ 2.383214013019194, 48.875676984423563 ], [ 2.383328791831188, 48.875719924440041 ], [ 2.383345523613338, 48.875706122235599 ], [ 2.383227317093444, 48.875661115893791 ], [ 2.383214013019194, 48.875676984423563 ] ] ] } },
{ "type": "Feature", "properties": { "num_emprise": "EC409474", "cp_arrondissement": "75012", "date_debut": "2024-09-18", "date_fin": "2025-02-14", "chantier_categorie": "Opérateurs de réseau (gaz-électricité-RATP-etc)", "moa_principal": "EAU DE PARIS", "demande_cite_id": "879323", "chantier_cite_id": "267417", "nature_chantier": "ENP" }, "geometry": { "type": "Polygon", "coordinates": [ [ [ 2.392757591874434, 48.847969023436121 ], [ 2.392759945416352, 48.847974272322645 ], [ 2.392886136779049, 48.847951005200578 ], [ 2.392774569577592, 48.847933135426025 ], [ 2.392757591874434, 48.847969023436121 ] ] ] } },
{ "type": "Feature", "properties": { "num_emprise": "EC409476", "cp_arrondissement": "75012", "date_debut": "2024-09-18", "date_fin": "2025-02-14", "chantier_categorie": "Opérateurs de réseau (gaz-électricité-RATP-etc)", "moa_principal": "EAU DE PARIS", "demande_cite_id": "879323", "chantier_cite_id": "267417", "nature_chantier": "GENIE_CIVIL" }, "geometry": { "type": "Polygon", "coordinates": [ [ [ 2.393865507358747, 48.847168980727041 ], [ 2.393854225323203, 48.847189870445611 ], [ 2.394350332273126, 48.84748472989417 ], [ 2.394391286137922, 48.847463534362213 ], [ 2.393865507358747, 48.847168980727041 ] ] ] } },
{ "type": "Feature", "properties": { "num_emprise": "EC414640", "cp_arrondissement": "75012", "date_debut": "2025-01-13", "date_fin": "2025-07-04", "chantier_categorie": "Opérateurs de réseau (gaz-électricité-RATP-etc)", "moa_principal": "EAU DE PARIS", "demande_cite_id": "883355", "chantier_cite_id": "270745", "nature_chantier": "EP" }, "geometry": { "type": "Polygon", "coordinates": [ [ [ 2.453063264203, 48.835839862861391 ], [ 2.453203945410569, 48.835872887480619 ], [ 2.453251656182016, 48.835839342731603 ], [ 2.453097491068708, 48.835805850904748 ], [ 2.453032871763623, 48.835784608452983 ], [ 2.452789561607001, 48.835700617830277 ], [ 2.452396187265277, 48.835586796934393 ], [ 2.452341130203898, 48.8355747047937 ], [ 2.452137655168806, 48.83550728872973 ], [ 2.45197273341466, 48.835447335571402 ], [ 2.451888964502379, 48.835410521375103 ], [ 2.451465427188542, 48.835279254564227 ], [ 2.451384312108909, 48.835252471045123 ], [ 2.45058247072043, 48.835018372758441 ], [ 2.450241317138401, 48.834924820466128 ], [ 2.449979928639643, 48.834855313265166 ], [ 2.449473484228756, 48.834737318405793 ], [ 2.44942399543272, 48.834720697072967 ], [ 2.449075852410588, 48.834636217063775 ], [ 2.448851558844738, 48.834581449659588 ], [ 2.448672625150374, 48.834542373413264 ], [ 2.448621679738807, 48.834533031649308 ], [ 2.448356097589107, 48.834468966040028 ], [ 2.448316197732788, 48.834458763135096 ], [ 2.44773231635046, 48.834358619286519 ], [ 2.447461064546194, 48.834309096937787 ], [ 2.44728341623896, 48.83427913236082 ], [ 2.446928140921523, 48.834217381302508 ], [ 2.446681672286992, 48.834172526132704 ], [ 2.446480612190705, 48.83413880873664 ], [ 2.446096359225324, 48.834077831239483 ], [ 2.445815501770447, 48.834023707182524 ], [ 2.445662618874512, 48.834000230497843 ], [ 2.445665369136869, 48.834001153397828 ], [ 2.445644807491434, 48.834032797460438 ], [ 2.44624471164372, 48.834124627511535 ], [ 2.446740517046213, 48.834203828992969 ], [ 2.448083233215946, 48.834441295739111 ], [ 2.448101157900761, 48.834442288601238 ], [ 2.448149363806947, 48.83444979674357 ], [ 2.448466245619987, 48.834519428086388 ], [ 2.449560948890293, 48.834787574289692 ], [ 2.450380440490531, 48.834989682238728 ], [ 2.451431862397002, 48.835294041696692 ], [ 2.452195507269772, 48.835560644690219 ], [ 2.452684567511358, 48.835700507087076 ], [ 2.453063264203, 48.835839862861391 ] ] ] } },
{ "type": "Feature", "properties": { "num_emprise": "EC417338", "cp_arrondissement": "75010", "date_debut": "2024-09-20", "date_fin": "2025-02-25", "chantier_categorie": "Opérateurs de réseau (gaz-électricité-RATP-etc)", "moa_principal": "EAU DE PARIS", "demande_cite_id": "885228", "chantier_cite_id": "272287", "nature_chantier": "EP" }, "geometry": { "type": "Polygon", "coordinates": [ [ [ 2.366026428421397, 48.877546598831024 ], [ 2.365920586844744, 48.877450868160913 ], [ 2.365814103052201, 48.87752133971069 ], [ 2.365896184796074, 48.877527238864218 ], [ 2.365970953535538, 48.877566795433623 ], [ 2.366026428421397, 48.877546598831024 ] ] ] } },
{ "type": "Feature", "properties": { "num_emprise": "EC407571", "cp_arrondissement": "75019", "date_debut": "2024-10-07", "date_fin": "2025-06-13", "chantier_categorie": "Opérateurs de réseau (gaz-électricité-RATP-etc)", "moa_principal": "EAU DE PARIS", "demande_cite_id": "877775", "chantier_cite_id": "266161", "nature_chantier": "EP" }, "geometry": { "type": "Polygon", "coordinates": [ [ [ 2.384009577404385, 48.878206035641412 ], [ 2.384032138384812, 48.878283107452496 ], [ 2.384091599674198, 48.878275671946867 ], [ 2.384079010007734, 48.878230982387379 ], [ 2.384044601040028, 48.878163412205474 ], [ 2.384009577404385, 48.878206035641412 ] ] ] } },
{ "type": "Feature", "properties": { "num_emprise": "EC412330", "cp_arrondissement": "75019", "date_debut": "2025-01-06", "date_fin": "2025-08-29", "chantier_categorie": "Opérateurs de réseau (gaz-électricité-RATP-etc)", "moa_principal": "EAU DE PARIS", "demande_cite_id": "881526", "chantier_cite_id": "269236", "nature_chantier": "EP" }, "geometry": { "type": "Polygon", "coordinates": [ [ [ 2.365925047814943, 48.884333297168027 ], [ 2.36591368357766, 48.884208165725973 ], [ 2.3658735189838, 48.884180024392094 ], [ 2.365707687044461, 48.88419007459575 ], [ 2.36568339881707, 48.884219088626139 ], [ 2.365729440713095, 48.88421811845356 ], [ 2.365736420817311, 48.884249726320263 ], [ 2.365531895143781, 48.884262000377568 ], [ 2.365539903665239, 48.884360399553849 ], [ 2.365814464220186, 48.884342425108223 ], [ 2.365819720500268, 48.88436431020105 ], [ 2.365674141042962, 48.884374467631524 ], [ 2.365710652264651, 48.884400160589607 ], [ 2.365970454129997, 48.884384536680834 ], [ 2.366000267451412, 48.884355551854156 ], [ 2.365924722562229, 48.884360009064125 ], [ 2.365925047814943, 48.884333297168027 ] ] ] } },
{ "type": "Feature", "properties": { "num_emprise": "EC431621", "cp_arrondissement": "75014", "date_debut": "2025-02-02", "date_fin": "2025-08-31", "chantier_categorie": "Opérateurs de réseau (gaz-électricité-RATP-etc)", "moa_principal": "EAU DE PARIS", "demande_cite_id": "896616", "chantier_cite_id": "281428", "nature_chantier": "EP" }, "geometry": { "type": "Polygon", "coordinates": [ [ [ 2.335760954300235, 48.833192429595208 ], [ 2.335851696140444, 48.833324992723668 ], [ 2.335951330818379, 48.833300956218942 ], [ 2.335864767822203, 48.833165228096057 ], [ 2.335760954300235, 48.833192429595208 ] ] ] } },
{ "type": "Feature", "properties": { "num_emprise": "EC431512", "cp_arrondissement": "75012", "date_debut": "2025-01-20", "date_fin": "2025-04-30", "chantier_categorie": "Opérateurs de réseau (gaz-électricité-RATP-etc)", "moa_principal": "EAU DE PARIS", "demande_cite_id": "896519", "chantier_cite_id": "281342", "nature_chantier": "ENP" }, "geometry": { "type": "Polygon", "coordinates": [ [ [ 2.453051870236832, 48.835854185219674 ], [ 2.453093217636296, 48.835858017584208 ], [ 2.453110288399368, 48.835808915075674 ], [ 2.451606042110563, 48.835328442281877 ], [ 2.450876116558537, 48.83510360093738 ], [ 2.448749024425837, 48.834558299770727 ], [ 2.447152989511798, 48.834258402784727 ], [ 2.445668591228368, 48.833996524029132 ], [ 2.445643353175052, 48.834034657794028 ], [ 2.447422562874398, 48.834336150820057 ], [ 2.447945908590519, 48.83442053430521 ], [ 2.449599076736653, 48.834797914316383 ], [ 2.451183275961136, 48.83522887143387 ], [ 2.451939473464953, 48.835474596559727 ], [ 2.453051870236832, 48.835854185219674 ] ] ] } },
{ "type": "Feature", "properties": { "num_emprise": "EC411374", "cp_arrondissement": "75010", "date_debut": "2025-01-13", "date_fin": "2025-08-08", "chantier_categorie": "Opérateurs de réseau (gaz-électricité-RATP-etc)", "moa_principal": "EAU DE PARIS", "demande_cite_id": "880850", "chantier_cite_id": "268643", "nature_chantier": "EP" }, "geometry": { "type": "MultiPolygon", "coordinates": [ [ [ [ 2.371936984440089, 48.876250614002679 ], [ 2.371937147197033, 48.876250685004614 ], [ 2.371937912025601, 48.876250011819295 ], [ 2.371936984440089, 48.876250614002679 ] ] ], [ [ [ 2.371937147197033, 48.876250685004614 ], [ 2.371656946602495, 48.876497466550681 ], [ 2.371679838899718, 48.876507300405343 ], [ 2.371732448944021, 48.876495433730874 ], [ 2.371950161555315, 48.876302897532057 ], [ 2.371986430742858, 48.87627212376411 ], [ 2.371937147197033, 48.876250685004614 ] ] ] ] } },
{ "type": "Feature", "properties": { "num_emprise": "EC407371", "cp_arrondissement": "75012", "date_debut": "2024-09-18", "date_fin": "2025-02-14", "chantier_categorie": "Opérateurs de réseau (gaz-électricité-RATP-etc)", "moa_principal": "EAU DE PARIS", "demande_cite_id": "877599", "chantier_cite_id": "266033", "nature_chantier": "ENP" }, "geometry": { "type": "Polygon", "coordinates": [ [ [ 2.3938302591442, 48.846904551817865 ], [ 2.3937106281112, 48.847039544109187 ], [ 2.393730465973353, 48.847047740633812 ], [ 2.393850868639384, 48.84691224589632 ], [ 2.3938302591442, 48.846904551817865 ] ] ] } },
{ "type": "Feature", "properties": { "num_emprise": "EC411377", "cp_arrondissement": "75010", "date_debut": "2025-01-13", "date_fin": "2025-08-08", "chantier_categorie": "Opérateurs de réseau (gaz-électricité-RATP-etc)", "moa_principal": "EAU DE PARIS", "demande_cite_id": "880851", "chantier_cite_id": "268644", "nature_chantier": "GENIE_CIVIL" }, "geometry": { "type": "Polygon", "coordinates": [ [ [ 2.36999750402481, 48.881163665783632 ], [ 2.370058227446706, 48.88116641349999 ], [ 2.370073218813363, 48.881144635074499 ], [ 2.370077947951794, 48.880753661075452 ], [ 2.370048448755659, 48.880757149043447 ], [ 2.369998727256229, 48.880758101500405 ], [ 2.36999750402481, 48.881163665783632 ] ] ] } },
{ "type": "Feature", "properties": { "num_emprise": "EC422638", "cp_arrondissement": "75010", "date_debut": "2024-11-04", "date_fin": "2025-02-28", "chantier_categorie": "Opérateurs de réseau (gaz-électricité-RATP-etc)", "moa_principal": "EAU DE PARIS", "demande_cite_id": "889499", "chantier_cite_id": "275687", "nature_chantier": "autre" }, "geometry": { "type": "Polygon", "coordinates": [ [ [ 2.366986782907244, 48.87667920629044 ], [ 2.366822032659793, 48.876744361363173 ], [ 2.366847503787582, 48.876778648270481 ], [ 2.367019144380914, 48.876714667254717 ], [ 2.366986782907244, 48.87667920629044 ] ] ] } },
{ "type": "Feature", "properties": { "num_emprise": "EC407373", "cp_arrondissement": "75012", "date_debut": "2024-09-18", "date_fin": "2025-02-14", "chantier_categorie": "Opérateurs de réseau (gaz-électricité-RATP-etc)", "moa_principal": "EAU DE PARIS", "demande_cite_id": "877599", "chantier_cite_id": "266033", "nature_chantier": "ENP" }, "geometry": { "type": "Polygon", "coordinates": [ [ [ 2.392203705339198, 48.848637755116791 ], [ 2.392136974277558, 48.848706227469336 ], [ 2.392087310471291, 48.848757583660714 ], [ 2.39201165143587, 48.848802736195346 ], [ 2.391940616170205, 48.848845887734761 ], [ 2.39186520621086, 48.848869791508349 ], [ 2.391802201697524, 48.848881614322245 ], [ 2.391737630117464, 48.848896464455258 ], [ 2.391744942020532, 48.848926860215393 ], [ 2.392142811027676, 48.848863106237431 ], [ 2.392174336139692, 48.848789396172819 ], [ 2.392179325891361, 48.848756027613391 ], [ 2.392264737149329, 48.848663363974964 ], [ 2.392203705339198, 48.848637755116791 ] ] ] } },
{ "type": "Feature", "properties": { "num_emprise": "EC409473", "cp_arrondissement": "75012", "date_debut": "2024-09-18", "date_fin": "2025-02-14", "chantier_categorie": "Opérateurs de réseau (gaz-électricité-RATP-etc)", "moa_principal": "EAU DE PARIS", "demande_cite_id": "879323", "chantier_cite_id": "267417", "nature_chantier": "autre" }, "geometry": { "type": "Polygon", "coordinates": [ [ [ 2.398695425783276, 48.841263300015513 ], [ 2.398559788006796, 48.841419265854057 ], [ 2.398583149348243, 48.841427580065414 ], [ 2.3987118876548, 48.841271579522285 ], [ 2.398695425783276, 48.841263300015513 ] ] ] } },
{ "type": "Feature", "properties": { "num_emprise": "EC412327", "cp_arrondissement": "75010", "date_debut": "2025-01-06", "date_fin": "2025-08-29", "chantier_categorie": "Opérateurs de réseau (gaz-électricité-RATP-etc)", "moa_principal": "EAU DE PARIS", "demande_cite_id": "881525", "chantier_cite_id": "269235", "nature_chantier": "autre" }, "geometry": { "type": "Polygon", "coordinates": [ [ [ 2.370196116812849, 48.880287998131244 ], [ 2.370208634798246, 48.87965246305086 ], [ 2.370109165909488, 48.879656796124785 ], [ 2.37010516411433, 48.880215952717933 ], [ 2.370100828822738, 48.880707638645752 ], [ 2.370360420106358, 48.880707790092352 ], [ 2.370363658691438, 48.880287665303456 ], [ 2.370196116812849, 48.880287998131244 ] ] ] } },
{ "type": "Feature", "properties": { "num_emprise": "EC405955", "cp_arrondissement": "75007", "date_debut": "2024-12-09", "date_fin": "2025-09-05", "chantier_categorie": "Opérateurs de réseau (gaz-électricité-RATP-etc)", "moa_principal": "EAU DE PARIS", "demande_cite_id": "876408", "chantier_cite_id": "265060", "nature_chantier": "EP" }, "geometry": { "type": "Polygon", "coordinates": [ [ [ 2.311838935710445, 48.850514206367215 ], [ 2.311872491119601, 48.850533525148983 ], [ 2.312063865034211, 48.85041076489108 ], [ 2.312056745199011, 48.850375204627618 ], [ 2.312175084235508, 48.850296650471279 ], [ 2.312132678626461, 48.850268173968139 ], [ 2.311791760924942, 48.850481148858599 ], [ 2.311838935710445, 48.850514206367215 ] ] ] } },
{ "type": "Feature", "properties": { "num_emprise": "EC405443", "cp_arrondissement": "75014", "date_debut": "2024-11-04", "date_fin": "2025-04-30", "chantier_categorie": "Opérateurs de réseau (gaz-électricité-RATP-etc)", "moa_principal": "EAU DE PARIS", "demande_cite_id": "875927", "chantier_cite_id": "264668", "nature_chantier": "GENIE_CIVIL" }, "geometry": { "type": "Polygon", "coordinates": [ [ [ 2.329849484543773, 48.830061926060331 ], [ 2.329883137041659, 48.830062478869564 ], [ 2.329885502918164, 48.830050105937559 ], [ 2.3298513081248, 48.830048821596762 ], [ 2.329849484543773, 48.830061926060331 ] ] ] } },
{ "type": "Feature", "properties": { "num_emprise": "EC407368", "cp_arrondissement": "75012", "date_debut": "2024-09-18", "date_fin": "2025-02-14", "chantier_categorie": "Opérateurs de réseau (gaz-électricité-RATP-etc)", "moa_principal": "EAU DE PARIS", "demande_cite_id": "877599", "chantier_cite_id": "266033", "nature_chantier": null }, "geometry": { "type": "Polygon", "coordinates": [ [ [ 2.397333716259177, 48.842794578749846 ], [ 2.397210846388703, 48.842946256112093 ], [ 2.397225234481356, 48.842961507976568 ], [ 2.39736284481903, 48.842794725489995 ], [ 2.397333716259177, 48.842794578749846 ] ] ] } },
{ "type": "Feature", "properties": { "num_emprise": "EC407370", "cp_arrondissement": "75012", "date_debut": "2024-09-18", "date_fin": "2025-02-14", "chantier_categorie": "Opérateurs de réseau (gaz-électricité-RATP-etc)", "moa_principal": "EAU DE PARIS", "demande_cite_id": "877599", "chantier_cite_id": "266033", "nature_chantier": "INSTALL_RES" }, "geometry": { "type": "Polygon", "coordinates": [ [ [ 2.396096644230228, 48.844302699509662 ], [ 2.395952764120628, 48.84448057914031 ], [ 2.395973372970501, 48.84448827286986 ], [ 2.396120342166552, 48.844308384356054 ], [ 2.396096644230228, 48.844302699509662 ] ] ] } },
{ "type": "Feature", "properties": { "num_emprise": "EC407573", "cp_arrondissement": "75019", "date_debut": "2024-10-07", "date_fin": "2025-06-13", "chantier_categorie": "Opérateurs de réseau (gaz-électricité-RATP-etc)", "moa_principal": "EAU DE PARIS", "demande_cite_id": "877775", "chantier_cite_id": "266161", "nature_chantier": "INSTALL_RES" }, "geometry": { "type": "Polygon", "coordinates": [ [ [ 2.383769454041831, 48.875511363085565 ], [ 2.383849474514658, 48.87551632831066 ], [ 2.384011346446587, 48.87537144695515 ], [ 2.384027480384334, 48.875291387710305 ], [ 2.383864545491033, 48.87540939695198 ], [ 2.383769454041831, 48.875511363085565 ] ] ] } },
{ "type": "Feature", "properties": { "num_emprise": "EC407577", "cp_arrondissement": "75019", "date_debut": "2024-10-07", "date_fin": "2025-06-13", "chantier_categorie": "Opérateurs de réseau (gaz-électricité-RATP-etc)", "moa_principal": "EAU DE PARIS", "demande_cite_id": "877775", "chantier_cite_id": "266161", "nature_chantier": "autre" }, "geometry": { "type": "Polygon", "coordinates": [ [ [ 2.381479065819051, 48.877707122664447 ], [ 2.382277434529541, 48.877332388089357 ], [ 2.382259076510173, 48.877308614858002 ], [ 2.382230833403864, 48.877303459836739 ], [ 2.381440129211318, 48.877672314314346 ], [ 2.381479065819051, 48.877707122664447 ] ] ] } },
{ "type": "Feature", "properties": { "num_emprise": "EC422904", "cp_arrondissement": "75013", "date_debut": "2024-12-02", "date_fin": "2026-01-30", "chantier_categorie": "Opérateurs de réseau (gaz-électricité-RATP-etc)", "moa_principal": "EAU DE PARIS", "demande_cite_id": "881280", "chantier_cite_id": "269023", "nature_chantier": "ENP" }, "geometry": { "type": "Polygon", "coordinates": [ [ [ 2.373552982982355, 48.83462790183377 ], [ 2.373706413789466, 48.834488449941027 ], [ 2.37349936731392, 48.83438262893506 ], [ 2.373347358673275, 48.834518444691767 ], [ 2.373552982982355, 48.83462790183377 ] ] ] } },
{ "type": "Feature", "properties": { "num_emprise": "EC424606", "cp_arrondissement": "75015", "date_debut": "2024-11-11", "date_fin": "2025-02-28", "chantier_categorie": "Opérateurs de réseau (gaz-électricité-RATP-etc)", "moa_principal": "EAU DE PARIS", "demande_cite_id": "890968", "chantier_cite_id": "276885", "nature_chantier": "ENP" }, "geometry": { "type": "Polygon", "coordinates": [ [ [ 2.305950439895668, 48.83304957082364 ], [ 2.305976679267437, 48.833047445867436 ], [ 2.305972003128454, 48.833036034449179 ], [ 2.30594570313915, 48.833042712586405 ], [ 2.305950439895668, 48.83304957082364 ] ] ] } },
{ "type": "Feature", "properties": { "num_emprise": "EC433582", "cp_arrondissement": "75007", "date_debut": "2025-01-27", "date_fin": "2025-02-07", "chantier_categorie": "Opérateurs de réseau (gaz-électricité-RATP-etc)", "moa_principal": "EAU DE PARIS", "demande_cite_id": "898165", "chantier_cite_id": "282714", "nature_chantier": "ENP" }, "geometry": { "type": "Polygon", "coordinates": [ [ [ 2.319201322973349, 48.858862487365457 ], [ 2.319154481232939, 48.85890866882675 ], [ 2.319227742538421, 48.859006078084349 ], [ 2.319303246400292, 48.858984650631569 ], [ 2.319201322973349, 48.858862487365457 ] ] ] } },
{ "type": "Feature", "properties": { "num_emprise": "EC427682", "cp_arrondissement": "75014", "date_debut": "2024-12-02", "date_fin": "2025-02-07", "chantier_categorie": "Opérateurs de réseau (gaz-électricité-RATP-etc)", "moa_principal": "EAU DE PARIS", "demande_cite_id": "893484", "chantier_cite_id": "278879", "nature_chantier": "ENP" }, "geometry": { "type": "Polygon", "coordinates": [ [ [ 2.336245616905197, 48.824165638072849 ], [ 2.33627309114121, 48.824174442590454 ], [ 2.336285006427976, 48.82415948190252 ], [ 2.336259599708706, 48.824150687963723 ], [ 2.336245616905197, 48.824165638072849 ] ] ] } },
{ "type": "Feature", "properties": { "num_emprise": "EC427995", "cp_arrondissement": "75008", "date_debut": "2025-01-06", "date_fin": "2025-02-28", "chantier_categorie": "Opérateurs de réseau (gaz-électricité-RATP-etc)", "moa_principal": "EAU DE PARIS", "demande_cite_id": "893808", "chantier_cite_id": "279084", "nature_chantier": "ENP" }, "geometry": { "type": "Polygon", "coordinates": [ [ [ 2.322643242702782, 48.870572375347635 ], [ 2.322617254481141, 48.87060683588107 ], [ 2.322647494991414, 48.870617024792601 ], [ 2.322673524640219, 48.870579377217098 ], [ 2.322643242702782, 48.870572375347635 ] ] ] } },
{ "type": "Feature", "properties": { "num_emprise": "EC428981", "cp_arrondissement": "75020", "date_debut": "2025-01-13", "date_fin": "2025-03-14", "chantier_categorie": "Opérateurs de réseau (gaz-électricité-RATP-etc)", "moa_principal": "EAU DE PARIS", "demande_cite_id": "894611", "chantier_cite_id": "279736", "nature_chantier": "autre" }, "geometry": { "type": "Polygon", "coordinates": [ [ [ 2.39395937144804, 48.857004519110994 ], [ 2.393992436379498, 48.857029352957213 ], [ 2.394160776267237, 48.856944064997847 ], [ 2.394125410802287, 48.856919220447793 ], [ 2.39395937144804, 48.857004519110994 ] ] ] } },
{ "type": "Feature", "properties": { "num_emprise": "EC431290", "cp_arrondissement": "75010", "date_debut": "2025-01-20", "date_fin": "2025-02-28", "chantier_categorie": "Opérateurs de réseau (gaz-électricité-RATP-etc)", "moa_principal": "EAU DE PARIS", "demande_cite_id": "896343", "chantier_cite_id": "281189", "nature_chantier": "INSTALL_RES" }, "geometry": { "type": "Polygon", "coordinates": [ [ [ 2.362453516548389, 48.876612572818487 ], [ 2.362424539664361, 48.876653400239384 ], [ 2.36261619057809, 48.876717601720259 ], [ 2.362620247242935, 48.87666810329852 ], [ 2.362453516548389, 48.876612572818487 ] ] ] } },
{ "type": "Feature", "properties": { "num_emprise": "EC427996", "cp_arrondissement": "75008", "date_debut": "2025-01-06", "date_fin": "2025-02-28", "chantier_categorie": "Opérateurs de réseau (gaz-électricité-RATP-etc)", "moa_principal": "EAU DE PARIS", "demande_cite_id": "893808", "chantier_cite_id": "279084", "nature_chantier": null }, "geometry": { "type": "Polygon", "coordinates": [ [ [ 2.322690812631477, 48.870630019898222 ], [ 2.322743771710991, 48.87064489160921 ], [ 2.322783146180764, 48.870589560199072 ], [ 2.322730907894675, 48.870572415447398 ], [ 2.322690812631477, 48.870630019898222 ] ] ] } },
{ "type": "Feature", "properties": { "num_emprise": "EC424913", "cp_arrondissement": "75015", "date_debut": "2024-11-11", "date_fin": "2025-02-28", "chantier_categorie": "Opérateurs de réseau (gaz-électricité-RATP-etc)", "moa_principal": "EAU DE PARIS", "demande_cite_id": "891173", "chantier_cite_id": "277043", "nature_chantier": null }, "geometry": { "type": "Polygon", "coordinates": [ [ [ 2.32042011661192, 48.844203754509088 ], [ 2.3204303461279, 48.844212920479919 ], [ 2.320440807204798, 48.84420432801992 ], [ 2.320425052224944, 48.844195585740621 ], [ 2.32042011661192, 48.844203754509088 ] ] ] } },
{ "type": "Feature", "properties": { "num_emprise": "EC424920", "cp_arrondissement": "75015", "date_debut": "2024-11-11", "date_fin": "2025-02-28", "chantier_categorie": "Opérateurs de réseau (gaz-électricité-RATP-etc)", "moa_principal": "EAU DE PARIS", "demande_cite_id": "891177", "chantier_cite_id": "277046", "nature_chantier": "GENIE_CIVIL" }, "geometry": { "type": "Polygon", "coordinates": [ [ [ 2.305196987113177, 48.842484019460173 ], [ 2.305189272075237, 48.842493537621145 ], [ 2.305214022077624, 48.842500056982985 ], [ 2.305221688558939, 48.842494180975272 ], [ 2.305196987113177, 48.842484019460173 ] ] ] } },
{ "type": "Feature", "properties": { "num_emprise": "EC410650", "cp_arrondissement": "75011", "date_debut": "2024-09-02", "date_fin": "2025-02-28", "chantier_categorie": "Opérateurs de réseau (gaz-électricité-RATP-etc)", "moa_principal": "EAU DE PARIS", "demande_cite_id": "880340", "chantier_cite_id": "268220", "nature_chantier": "INSTALL_RES" }, "geometry": { "type": "Polygon", "coordinates": [ [ [ 2.388835078214124, 48.852493636632914 ], [ 2.388871156266469, 48.852511867288761 ], [ 2.388927344948021, 48.852471339907254 ], [ 2.388885148429185, 48.852451898069383 ], [ 2.388835078214124, 48.852493636632914 ] ] ] } },
{ "type": "Feature", "properties": { "num_emprise": "EC411375", "cp_arrondissement": "75010", "date_debut": "2025-01-13", "date_fin": "2025-08-08", "chantier_categorie": "Opérateurs de réseau (gaz-électricité-RATP-etc)", "moa_principal": "EAU DE PARIS", "demande_cite_id": "880851", "chantier_cite_id": "268644", "nature_chantier": "GENIE_CIVIL" }, "geometry": { "type": "Polygon", "coordinates": [ [ [ 2.374085715339405, 48.874382149623955 ], [ 2.37393502360311, 48.874513719371045 ], [ 2.373944168936414, 48.874518624507573 ], [ 2.374012372098284, 48.87451108862912 ], [ 2.374110916894699, 48.874429639460935 ], [ 2.374127015903782, 48.874392080183334 ], [ 2.374098621844967, 48.874380395956202 ], [ 2.374085715339405, 48.874382149623955 ] ] ] } },
{ "type": "Feature", "properties": { "num_emprise": "EC412557", "cp_arrondissement": "75019", "date_debut": "2024-12-12", "date_fin": "2025-07-25", "chantier_categorie": "Opérateurs de réseau (gaz-électricité-RATP-etc)", "moa_principal": "EAU DE PARIS", "demande_cite_id": "881710", "chantier_cite_id": "269385", "nature_chantier": "INSTALL_RES" }, "geometry": { "type": "Polygon", "coordinates": [ [ [ 2.376054569234924, 48.873071888668917 ], [ 2.375439339080324, 48.873603954758231 ], [ 2.375601060195239, 48.873626654986666 ], [ 2.375927288544229, 48.873324404283665 ], [ 2.375911729464042, 48.873317037648562 ], [ 2.376015067832975, 48.873219218756994 ], [ 2.376034293194556, 48.873227819492747 ], [ 2.376157067386441, 48.87312099421267 ], [ 2.376054569234924, 48.873071888668917 ] ] ] } },
{ "type": "Feature", "properties": { "num_emprise": "EC427994", "cp_arrondissement": "75008", "date_debut": "2025-01-06", "date_fin": "2025-02-28", "chantier_categorie": "Opérateurs de réseau (gaz-électricité-RATP-etc)", "moa_principal": "EAU DE PARIS", "demande_cite_id": "893808", "chantier_cite_id": "279084", "nature_chantier": "INSTALL_RES" }, "geometry": { "type": "Polygon", "coordinates": [ [ [ 2.323019481191194, 48.870728871546739 ], [ 2.323105398856353, 48.870757134544938 ], [ 2.323163311265536, 48.870656371440958 ], [ 2.323089711451026, 48.870636374750518 ], [ 2.323019481191194, 48.870728871546739 ] ] ] } },
{ "type": "Feature", "properties": { "num_emprise": "EC407372", "cp_arrondissement": "75012", "date_debut": "2024-09-18", "date_fin": "2025-02-14", "chantier_categorie": "Opérateurs de réseau (gaz-électricité-RATP-etc)", "moa_principal": "EAU DE PARIS", "demande_cite_id": "877599", "chantier_cite_id": "266033", "nature_chantier": null }, "geometry": { "type": "Polygon", "coordinates": [ [ [ 2.39313147393306, 48.84766248684943 ], [ 2.393153646021164, 48.847667659083143 ], [ 2.393284087053949, 48.847526144349111 ], [ 2.393265801039479, 48.84751643841291 ], [ 2.39313147393306, 48.84766248684943 ] ] ] } },
{ "type": "Feature", "properties": { "num_emprise": "EC407572", "cp_arrondissement": "75019", "date_debut": "2024-10-07", "date_fin": "2025-06-13", "chantier_categorie": "Opérateurs de réseau (gaz-électricité-RATP-etc)", "moa_principal": "EAU DE PARIS", "demande_cite_id": "877775", "chantier_cite_id": "266161", "nature_chantier": "INSTALL_RES" }, "geometry": { "type": "Polygon", "coordinates": [ [ [ 2.383551773135129, 48.878096670454916 ], [ 2.383065709531724, 48.878158371584483 ], [ 2.383078453355756, 48.878189857178455 ], [ 2.383360524174245, 48.878156248230724 ], [ 2.383394528221882, 48.878141396460336 ], [ 2.383558374261013, 48.878122204072355 ], [ 2.383551773135129, 48.878096670454916 ] ] ] } },
{ "type": "Feature", "properties": { "num_emprise": "EC412326", "cp_arrondissement": "75019", "date_debut": "2025-01-06", "date_fin": "2025-08-29", "chantier_categorie": "Opérateurs de réseau (gaz-électricité-RATP-etc)", "moa_principal": "EAU DE PARIS", "demande_cite_id": "881525", "chantier_cite_id": "269235", "nature_chantier": null }, "geometry": { "type": "Polygon", "coordinates": [ [ [ 2.370480689672596, 48.881705348162306 ], [ 2.37042149943404, 48.881728108303534 ], [ 2.370417198480737, 48.882083870092437 ], [ 2.37048306358552, 48.882118216458032 ], [ 2.370480689672596, 48.881705348162306 ] ] ] } },
{ "type": "Feature", "properties": { "num_emprise": "EC422636", "cp_arrondissement": "75010", "date_debut": "2024-10-14", "date_fin": "2025-03-28", "chantier_categorie": "Opérateurs de réseau (gaz-électricité-RATP-etc)", "moa_principal": "EAU DE PARIS", "demande_cite_id": "889494", "chantier_cite_id": "275683", "nature_chantier": "INSTALL_RES" }, "geometry": { "type": "Polygon", "coordinates": [ [ [ 2.366029235846369, 48.877546148743498 ], [ 2.366018114876494, 48.877538120860159 ], [ 2.365970311928875, 48.877495178158334 ], [ 2.365961242690088, 48.877460408679205 ], [ 2.365916954316949, 48.877412361966179 ], [ 2.365865744769969, 48.877436566058627 ], [ 2.365817550643672, 48.877496646104824 ], [ 2.365740440439326, 48.877521851484964 ], [ 2.365728193104462, 48.877535446562966 ], [ 2.36575025474108, 48.877566300849445 ], [ 2.365772821020609, 48.877555605028867 ], [ 2.365789099315935, 48.8775653680907 ], [ 2.365820596135008, 48.877600824771072 ], [ 2.365876984020847, 48.877576648130649 ], [ 2.365908986756273, 48.877570556491321 ], [ 2.365947671961759, 48.877582714425152 ], [ 2.366029235846369, 48.877546148743498 ] ] ] } },
{ "type": "Feature", "properties": { "num_emprise": "EC431289", "cp_arrondissement": "75010", "date_debut": "2025-01-20", "date_fin": "2025-02-28", "chantier_categorie": "Opérateurs de réseau (gaz-électricité-RATP-etc)", "moa_principal": "EAU DE PARIS", "demande_cite_id": "896343", "chantier_cite_id": "281189", "nature_chantier": "GENIE_CIVIL" }, "geometry": { "type": "Polygon", "coordinates": [ [ [ 2.360785753005827, 48.876095385233974 ], [ 2.36076214356262, 48.876050292435949 ], [ 2.360638346999036, 48.876082644977522 ], [ 2.360686504230545, 48.876166574458729 ], [ 2.360806808414836, 48.87613761799426 ], [ 2.360785753005827, 48.876095385233974 ] ] ] } },
{ "type": "Feature", "properties": { "num_emprise": "EC400435", "cp_arrondissement": "75012", "date_debut": "2024-06-03", "date_fin": "2025-02-14", "chantier_categorie": "Opérateurs de réseau (gaz-électricité-RATP-etc)", "moa_principal": "EAU DE PARIS", "demande_cite_id": "871678", "chantier_cite_id": "261257", "nature_chantier": "GENIE_CIVIL" }, "geometry": { "type": "Polygon", "coordinates": [ [ [ 2.39741702358121, 48.837846284890382 ], [ 2.397871555267773, 48.838071402426223 ], [ 2.397877487989173, 48.838035609801402 ], [ 2.397490601669006, 48.837846655524608 ], [ 2.39741702358121, 48.837846284890382 ] ] ] } },
{ "type": "Feature", "properties": { "num_emprise": "EC407569", "cp_arrondissement": "75019", "date_debut": "2024-10-07", "date_fin": "2025-06-13", "chantier_categorie": "Opérateurs de réseau (gaz-électricité-RATP-etc)", "moa_principal": "EAU DE PARIS", "demande_cite_id": "877775", "chantier_cite_id": "266161", "nature_chantier": "autre" }, "geometry": { "type": "Polygon", "coordinates": [ [ [ 2.385639937258431, 48.878524511702423 ], [ 2.385595166594522, 48.878281576943891 ], [ 2.385516458385135, 48.878282083089367 ], [ 2.385565573507938, 48.878507737061852 ], [ 2.385639937258431, 48.878524511702423 ] ] ] } },
{ "type": "Feature", "properties": { "num_emprise": "EC412329", "cp_arrondissement": "75019", "date_debut": "2025-01-06", "date_fin": "2025-08-29", "chantier_categorie": "Opérateurs de réseau (gaz-électricité-RATP-etc)", "moa_principal": "EAU DE PARIS", "demande_cite_id": "881526", "chantier_cite_id": "269236", "nature_chantier": "INSTALL_RES" }, "geometry": { "type": "Polygon", "coordinates": [ [ [ 2.36800001521054, 48.884226558736728 ], [ 2.367994198658315, 48.884174921038529 ], [ 2.368259522508475, 48.884159321317753 ], [ 2.368160007015272, 48.884090796252323 ], [ 2.368060978869816, 48.884058095678654 ], [ 2.366986759061318, 48.884123456172325 ], [ 2.366945687535567, 48.884169988752063 ], [ 2.366954280387199, 48.884220427094313 ], [ 2.367267575973918, 48.884196582761383 ], [ 2.367264285306646, 48.884164387439206 ], [ 2.367413509980802, 48.884157282567465 ], [ 2.367412781315, 48.884141493724073 ], [ 2.367902003861222, 48.884110077576338 ], [ 2.367907888001027, 48.884156251326765 ], [ 2.367801966108815, 48.884160549343697 ], [ 2.367806184883016, 48.884192142504197 ], [ 2.367922240030829, 48.884187290933994 ], [ 2.367927218526387, 48.884232245807198 ], [ 2.3677788846469, 48.884241783307488 ], [ 2.367817194766124, 48.884271128294806 ], [ 2.368020805522158, 48.884258239360605 ], [ 2.368043332694422, 48.884222537164675 ], [ 2.36800001521054, 48.884226558736728 ] ] ] } },
{ "type": "Feature", "properties": { "num_emprise": "EC411376", "cp_arrondissement": "75010", "date_debut": "2025-01-13", "date_fin": "2025-08-08", "chantier_categorie": "Opérateurs de réseau (gaz-électricité-RATP-etc)", "moa_principal": "EAU DE PARIS", "demande_cite_id": "880851", "chantier_cite_id": "268644", "nature_chantier": "GENIE_CIVIL" }, "geometry": { "type": "Polygon", "coordinates": [ [ [ 2.375227558543168, 48.873419111784457 ], [ 2.375265292847034, 48.87341930872811 ], [ 2.375527606482979, 48.873189354902379 ], [ 2.37550580983047, 48.873164955531983 ], [ 2.375476497283371, 48.873153266824971 ], [ 2.37518438169006, 48.873412207955667 ], [ 2.375195352816201, 48.873418336634842 ], [ 2.375227558543168, 48.873419111784457 ] ] ] } },
{ "type": "Feature", "properties": { "num_emprise": "EC426621", "cp_arrondissement": "75018", "date_debut": "2025-01-06", "date_fin": "2025-02-28", "chantier_categorie": "Opérateurs de réseau (gaz-électricité-RATP-etc)", "moa_principal": "EAU DE PARIS", "demande_cite_id": "892634", "chantier_cite_id": "278225", "nature_chantier": "INSTALL_RES" }, "geometry": { "type": "Polygon", "coordinates": [ [ [ 2.36510174555307, 48.895805028467095 ], [ 2.365166622481204, 48.895751641745889 ], [ 2.365071847033327, 48.895708336255666 ], [ 2.364934279597549, 48.895719445438658 ], [ 2.364962522683295, 48.895781978203992 ], [ 2.36510174555307, 48.895805028467095 ] ] ] } }
]
}
